{"type": "FeatureCollection", "features": [ {"type": "Feature", "properties": {"norad_id": 30121, "name": "FENGYUN 1C DEB", "group": "fengyun-1c-debris", "lat": -28.771068229743225, "lon": 174.44499506324826, "alt_km": 745.375192409545, "timestamp": "2025-12-07T20:38:14.337928+00:00", "meta": {"OBJECT_NAME": "FENGYUN 1C DEB", "OBJECT_ID": "1999-025SA", "EPOCH": "2025-12-07T08:04:05.711808", "MEAN_MOTION": 14.39890173, "ECCENTRICITY": 0.00316101, "INCLINATION": 102.1649, "RA_OF_ASC_NODE": 0.5064, "ARG_OF_PERICENTER": 178.7274, "MEAN_ANOMALY": 197.12, "EPHEMERIS_TYPE": 0, "CLASSIFICATION_TYPE": "U", "NORAD_CAT_ID": 30121, "ELEMENT_SET_NO": 999, "REV_AT_EPOCH": 97462, "BSTAR": 0.0032042297, "MEAN_MOTION_DOT": 0.00010072, "MEAN_MOTION_DDOT": 0}, "tle": {"line1": "1 30121U 99025SA  25341.33617722  .00010072  00000+0  32042-2 0  9990", "line2": "2 30121 102.1649   0.5064 0031610 178.7274 197.1200 14.39890173974627"}}, "geometry": {"type": "Point", "coordinates": [174.44499506324826, -28.771068229743225]}}, {"type": "Feature", "properties": {"norad_id": 30123, "name": "FENGYUN 1C DEB", "group": "fengyun-1c-debris", "lat": -55.13654282243869, "lon": 93.29017745542046, "alt_km": 929.8931942054924, "timestamp": "2025-12-07T20:38:14.337938+00:00", "meta": {"OBJECT_NAME": "FENGYUN 1C DEB", "OBJECT_ID": "1999-025SC", "EPOCH": "2025-12-06T06:30:17.515584", "MEAN_MOTION": 14.25891995, "ECCENTRICITY": 0.02304438, "INCLINATION": 96.9264, "RA_OF_ASC_NODE": 282.0805, "ARG_OF_PERICENTER": 104.4171, "MEAN_ANOMALY": 258.2708, "EPHEMERIS_TYPE": 0, "CLASSIFICATION_TYPE": "U", "NORAD_CAT_ID": 30123, "ELEMENT_SET_NO": 999, "REV_AT_EPOCH": 97155, "BSTAR": 0.0022399234, "MEAN_MOTION_DOT": 7.027e-05, "MEAN_MOTION_DDOT": 0}, "tle": {"line1": "1 30123U 99025SC  25340.27103606  .00007027  00000+0  22399-2 0  9995", "line2": "2 30123  96.9264 282.0805 0230443 104.4171 258.2708 14.25891995971558"}}, "geometry": {"type": "Point", "coordinates": [93.29017745542046, -55.13654282243869]}}, {"type": "Feature", "properties": {"norad_id": 30124, "name": "FENGYUN 1C DEB", "group": "fengyun-1c-debris", "lat": 0.5152433025823249, "lon": 35.53581722651853, "alt_km": 896.7687540535235, "timestamp": "2025-12-07T20:38:14.337947+00:00", "meta": {"OBJECT_NAME": "FENGYUN 1C DEB", "OBJECT_ID": "1999-025SD", "EPOCH": "2025-12-07T03:45:48.067776", "MEAN_MOTION": 14.14200246, "ECCENTRICITY": 0.01436194, "INCLINATION": 99.1313, "RA_OF_ASC_NODE": 34.9002, "ARG_OF_PERICENTER": 121.476, "MEAN_ANOMALY": 263.112, "EPHEMERIS_TYPE": 0, "CLASSIFICATION_TYPE": "U", "NORAD_CAT_ID": 30124, "ELEMENT_SET_NO": 999, "REV_AT_EPOCH": 96836, "BSTAR": 0.0016087652, "MEAN_MOTION_DOT": 3.343e-05, "MEAN_MOTION_DDOT": 0}, "tle": {"line1": "1 30124U 99025SD  25341.15680634  .00003343  00000+0  16088-2 0  9990", "line2": "2 30124  99.1313  34.9002 0143619 121.4760 263.1120 14.14200246968362"}}, "geometry": {"type": "Point", "coordinates": [35.53581722651853, 0.5152433025823249]}}, {"type": "Feature", "properties": {"norad_id": 30125, "name": "FENGYUN 1C DEB", "group": "fengyun-1c-debris", "lat": 9.716269218561953, "lon": 79.18992899386035, "alt_km": 576.1943345056243, "timestamp": "2025-12-07T20:38:14.337957+00:00", "meta": {"OBJECT_NAME": "FENGYUN 1C DEB", "OBJECT_ID": "1999-025SE", "EPOCH": "2025-12-07T05:32:09.595968", "MEAN_MOTION": 14.22608819, "ECCENTRICITY": 0.03427133, "INCLINATION": 98.7242, "RA_OF_ASC_NODE": 80.0722, "ARG_OF_PERICENTER": 0.1701, "MEAN_ANOMALY": 28.3348, "EPHEMERIS_TYPE": 0, "CLASSIFICATION_TYPE": "U", "NORAD_CAT_ID": 30125, "ELEMENT_SET_NO": 999, "REV_AT_EPOCH": 96843, "BSTAR": 0.001082881, "MEAN_MOTION_DOT": 4.381e-05, "MEAN_MOTION_DDOT": 0}, "tle": {"line1": "1 30125U 99025SE  25341.23066662  .00004381  00000+0  10829-2 0  9999", "line2": "2 30125  98.7242  80.0722 0342713   0.1701  28.3348 14.22608819968432"}}, "geometry": {"type": "Point", "coordinates": [79.18992899386035, 9.716269218561953]}}, {"type": "Feature", "properties": {"norad_id": 30127, "name": "FENGYUN 1C DEB", "group": "fengyun-1c-debris", "lat": 29.000037253369438, "lon": 23.171000744823097, "alt_km": 730.5229376264806, "timestamp": "2025-12-07T20:38:14.337967+00:00", "meta": {"OBJECT_NAME": "FENGYUN 1C DEB", "OBJECT_ID": "1999-025SG", "EPOCH": "2025-12-07T01:34:35.736960", "MEAN_MOTION": 14.37874597, "ECCENTRICITY": 0.00848176, "INCLINATION": 98.207, "RA_OF_ASC_NODE": 197.8239, "ARG_OF_PERICENTER": 96.1768, "MEAN_ANOMALY": 264.9091, "EPHEMERIS_TYPE": 0, "CLASSIFICATION_TYPE": "U", "NORAD_CAT_ID": 30127, "ELEMENT_SET_NO": 999, "REV_AT_EPOCH": 97154, "BSTAR": 0.0036458977, "MEAN_MOTION_DOT": 0.00011443, "MEAN_MOTION_DDOT": 0}, "tle": {"line1": "1 30127U 99025SG  25341.06569140  .00011443  00000+0  36459-2 0  9995", "line2": "2 30127  98.2070 197.8239 0084817  96.1768 264.9091 14.37874597971547"}}, "geometry": {"type": "Point", "coordinates": [23.171000744823097, 29.000037253369438]}}, {"type": "Feature", "properties": {"norad_id": 30128, "name": "FENGYUN 1C DEB", "group": "fengyun-1c-debris", "lat": -14.92901494849152, "lon": -16.660547205792636, "alt_km": 812.8053724347274, "timestamp": "2025-12-07T20:38:14.337977+00:00", "meta": {"OBJECT_NAME": "FENGYUN 1C DEB", "OBJECT_ID": "1999-025SH", "EPOCH": "2025-12-07T06:19:33.339648", "MEAN_MOTION": 14.45963517, "ECCENTRICITY": 0.01074744, "INCLINATION": 96.9797, "RA_OF_ASC_NODE": 340.9764, "ARG_OF_PERICENTER": 142.1129, "MEAN_ANOMALY": 341.2779, "EPHEMERIS_TYPE": 0, "CLASSIFICATION_TYPE": "U", "NORAD_CAT_ID": 30128, "ELEMENT_SET_NO": 999, "REV_AT_EPOCH": 97232, "BSTAR": 0.0036132141, "MEAN_MOTION_DOT": 0.00013804, "MEAN_MOTION_DDOT": 0}, "tle": {"line1": "1 30128U 99025SH  25341.26358032  .00013804  00000+0  36132-2 0  9995", "line2": "2 30128  96.9797 340.9764 0107474 142.1129 341.2779 14.45963517972320"}}, "geometry": {"type": "Point", "coordinates": [-16.660547205792636, -14.92901494849152]}}, {"type": "Feature", "properties": {"norad_id": 30129, "name": "FENGYUN 1C DEB", "group": "fengyun-1c-debris", "lat": -0.5729261419685481, "lon": -75.62381036856294, "alt_km": 928.2682534817613, "timestamp": "2025-12-07T20:38:14.337989+00:00", "meta": {"OBJECT_NAME": "FENGYUN 1C DEB", "OBJECT_ID": "1999-025SJ", "EPOCH": "2025-12-06T19:13:32.547360", "MEAN_MOTION": 14.0156268, "ECCENTRICITY": 0.0188692, "INCLINATION": 98.0264, "RA_OF_ASC_NODE": 283.3628, "ARG_OF_PERICENTER": 109.2026, "MEAN_ANOMALY": 313.0335, "EPHEMERIS_TYPE": 0, "CLASSIFICATION_TYPE": "U", "NORAD_CAT_ID": 30129, "ELEMENT_SET_NO": 999, "REV_AT_EPOCH": 96395, "BSTAR": 0.0007202525, "MEAN_MOTION_DOT": 1.239e-05, "MEAN_MOTION_DDOT": 0}, "tle": {"line1": "1 30129U 99025SJ  25340.80107115  .00001239  00000+0  72025-3 0  9990", "line2": "2 30129  98.0264 283.3628 0188692 109.2026 313.0335 14.01562680963955"}}, "geometry": {"type": "Point", "coordinates": [-75.62381036856294, -0.5729261419685481]}}, {"type": "Feature", "properties": {"norad_id": 30131, "name": "FENGYUN 1C DEB", "group": "fengyun-1c-debris", "lat": 80.36213572270815, "lon": 3.3049834467151693, "alt_km": 809.101380633072, "timestamp": "2025-12-07T20:38:14.338022+00:00", "meta": {"OBJECT_NAME": "FENGYUN 1C DEB", "OBJECT_ID": "1999-025SL", "EPOCH": "2025-12-07T05:09:33.711264", "MEAN_MOTION": 14.2108793, "ECCENTRICITY": 0.00832227, "INCLINATION": 99.0753, "RA_OF_ASC_NODE": 72.8986, "ARG_OF_PERICENTER": 174.2021, "MEAN_ANOMALY": 216.0087, "EPHEMERIS_TYPE": 0, "CLASSIFICATION_TYPE": "U", "NORAD_CAT_ID": 30131, "ELEMENT_SET_NO": 999, "REV_AT_EPOCH": 96610, "BSTAR": 0.0042580874, "MEAN_MOTION_DOT": 9.541e-05, "MEAN_MOTION_DDOT": 0}, "tle": {"line1": "1 30131U 99025SL  25341.21497351  .00009541  00000+0  42581-2 0  9990", "line2": "2 30131  99.0753  72.8986 0083222 174.2021 216.0087 14.21087930966108"}}, "geometry": {"type": "Point", "coordinates": [3.3049834467151693, 80.36213572270815]}}, {"type": "Feature", "properties": {"norad_id": 30132, "name": "FENGYUN 1C DEB", "group": "fengyun-1c-debris", "lat": -0.32915530384233876, "lon": 115.20421244118593, "alt_km": 949.5320998662837, "timestamp": "2025-12-07T20:38:14.338034+00:00", "meta": {"OBJECT_NAME": "FENGYUN 1C DEB", "OBJECT_ID": "1999-025SM", "EPOCH": "2025-12-07T02:37:44.346720", "MEAN_MOTION": 13.94840124, "ECCENTRICITY": 0.01057381, "INCLINATION": 99.5766, "RA_OF_ASC_NODE": 294.4815, "ARG_OF_PERICENTER": 64.7593, "MEAN_ANOMALY": 308.5844, "EPHEMERIS_TYPE": 0, "CLASSIFICATION_TYPE": "U", "NORAD_CAT_ID": 30132, "ELEMENT_SET_NO": 999, "REV_AT_EPOCH": 96011, "BSTAR": 0.00076664359, "MEAN_MOTION_DOT": 1.031e-05, "MEAN_MOTION_DDOT": 0}, "tle": {"line1": "1 30132U 99025SM  25341.10954105  .00001031  00000+0  76664-3 0  9990", "line2": "2 30132  99.5766 294.4815 0105738  64.7593 308.5844 13.94840124960119"}}, "geometry": {"type": "Point", "coordinates": [115.20421244118593, -0.32915530384233876]}}, {"type": "Feature", "properties": {"norad_id": 30133, "name": "FENGYUN 1C DEB", "group": "fengyun-1c-debris", "lat": -36.15537798378912, "lon": -37.20479929064763, "alt_km": 843.7269210748873, "timestamp": "2025-12-07T20:38:14.338044+00:00", "meta": {"OBJECT_NAME": "FENGYUN 1C DEB", "OBJECT_ID": "1999-025SN", "EPOCH": "2025-12-06T23:40:54.456096", "MEAN_MOTION": 14.06627701, "ECCENTRICITY": 0.00856046, "INCLINATION": 98.3241, "RA_OF_ASC_NODE": 148.1327, "ARG_OF_PERICENTER": 276.7904, "MEAN_ANOMALY": 201.523, "EPHEMERIS_TYPE": 0, "CLASSIFICATION_TYPE": "U", "NORAD_CAT_ID": 30133, "ELEMENT_SET_NO": 999, "REV_AT_EPOCH": 96297, "BSTAR": 0.002533741, "MEAN_MOTION_DOT": 4.305e-05, "MEAN_MOTION_DDOT": 0}, "tle": {"line1": "1 30133U 99025SN  25340.98674139  .00004305  00000+0  25337-2 0  9999", "line2": "2 30133  98.3241 148.1327 0085604 276.7904 201.5230 14.06627701962973"}}, "geometry": {"type": "Point", "coordinates": [-37.20479929064763, -36.15537798378912]}}]}